OBJECT_NAME,OBJECT_ID,EPOCH,MEAN_MOTION,ECCENTRICITY,INCLINATION,RA_OF_ASC_NODE,ARG_OF_PERICENTER,MEAN_ANOMALY,EPHEMERIS_TYPE,CLASSIFICATION_TYPE,NORAD_CAT_ID,ELEMENT_SET_NO,REV_AT_EPOCH,BSTAR,MEAN_MOTION_DOT,MEAN_MOTION_DDOT
STARLINK-5705,2023-015Z,2026-07-10T21:30:19.207296,15.27579070,.0001968,43.0049,345.9862,271.4026,88.6600,0,U,55472,999,18964,-.18038E-4,-.759E-5,0
STARLINK-5689,2023-015AB,2026-07-10T12:00:17.343936,15.27577248,.0001366,43.0028,6.4941,230.9388,129.1342,0,U,55474,999,18937,.18637E-4,.251E-5,0
STARLINK-5650,2023-015AC,2026-07-10T12:13:15.337056,15.27568685,.0001219,43.0044,355.2722,273.1663,86.9049,0,U,55475,999,18950,.3865E-4,.801E-5,0
STARLINK-5685,2023-015AE,2026-07-10T17:19:04.320192,15.27594108,.0000893,43.0020,346.3988,276.6068,83.4682,0,U,55477,999,18962,.14144E-4,.127E-5,0
STARLINK-5691,2023-015AF,2026-07-10T11:38:19.682592,15.27576489,.0001592,43.0037,344.6420,266.1295,93.9375,0,U,55478,999,18962,-.19216E-5,-.315E-5,0
STARLINK-5688,2023-015AG,2026-07-10T18:01:38.144352,15.27589241,.0002779,43.0021,346.6126,164.1598,195.9341,0,U,55479,999,18962,.35537E-4,.715E-5,0
STARLINK-5690,2023-015AH,2026-07-10T11:12:10.076256,15.27581613,.00015112,43.0064,6.1710,266.0007,94.0672,0,U,55480,999,18937,.72527781E-4,.1734E-4,0
STARLINK-5694,2023-015AJ,2026-07-10T11:38:05.138016,15.27578219,.0001632,43.0055,6.3892,270.7628,89.3037,0,U,55481,999,18937,.22958E-4,.369E-5,0
STARLINK-5692,2023-015AL,2026-07-10T18:57:24.441408,15.27588449,.000373,42.9965,4.3671,164.8711,195.2253,0,U,55483,999,18942,-.18712E-5,-.315E-5,0
STARLINK-5696,2023-015AM,2026-07-09T20:11:19.330080,15.27577541,.00014038,43.0035,10.1496,271.5308,88.5383,0,U,55484,999,18927,.13877408E-4,.12E-5,0
STARLINK-5695,2023-015AN,2026-07-10T19:39:57.996000,15.27576337,.00023,43.0047,4.5941,271.7503,88.3085,0,U,55485,999,18942,.12472E-4,.81E-6,0
STARLINK-5704,2023-015AP,2026-07-10T19:34:24.040128,15.27586740,.000277,43.0072,4.5180,273.2208,86.8327,0,U,55486,999,18942,.31509E-4,.605E-5,0
STARLINK-5701,2023-015AQ,2026-07-09T19:45:25.072704,15.27574390,.00011197,43.0038,10.0209,276.6763,83.3962,0,U,55487,999,18927,.16202226E-4,.184E-5,0
STARLINK-5706,2023-015AR,2026-07-10T22:22:22.880064,15.27576602,.0002011,43.0060,3.7161,269.7417,90.3205,0,U,55488,999,18944,.15934E-4,.176E-5,0
STARLINK-5371,2023-015AS,2026-07-09T12:00:09.097920,15.27604316,.0001982,43.0060,11.8975,273.1586,86.9039,0,U,55489,999,18922,.14799435E-3,.3815E-4,0
STARLINK-5373,2023-015AT,2026-07-10T18:46:18.323328,15.27581148,.0001039,43.0046,4.3063,262.0824,97.9910,0,U,55490,999,18942,.36516E-4,.743E-5,0
STARLINK-5364,2023-015AU,2026-07-10T11:24:39.859776,15.27577842,.00006919,43.0024,347.9750,166.6764,193.4106,0,U,55491,999,18958,-.12558298E-4,-.607E-5,0
STARLINK-5013,2023-015AV,2026-07-10T08:22:16.342464,15.27657289,.00040682,43.0045,7.0705,303.3459,56.7003,0,U,55492,999,18935,.37811485E-3,.10182E-3,0
STARLINK-5362,2023-015AW,2026-07-10T11:02:55.902336,15.27575425,.001077,43.0379,6.2158,285.5845,74.3819,0,U,55493,999,18937,-.47601E-5,-.398E-5,0
STARLINK-5344,2023-015AX,2026-07-10T11:34:23.115936,15.27575623,.0001743,43.0052,6.3600,269.2633,90.8019,0,U,55494,999,18937,.16855E-4,.201E-5,0
STARLINK-5100,2023-015AY,2026-07-10T20:58:51.724992,15.27583674,.0001655,43.0047,345.8242,246.6986,113.3692,0,U,55495,999,18964,.15706E-4,.17E-5,0
STARLINK-5363,2023-015BA,2026-07-09T23:06:41.516064,15.27582323,.00017378,43.0047,9.3366,278.1470,81.9185,0,U,55497,999,18929,.60871424E-4,.1413E-4,0
STARLINK-5365,2023-015BB,2026-07-10T11:54:44.029152,15.27577826,.000166,43.0041,6.4568,264.1062,95.9600,0,U,55498,999,18937,-.11407E-4,-.576E-5,0
STARLINK-5366,2023-015BC,2026-07-09T22:14:51.402048,15.27584880,.00011182,43.0033,9.0686,280.8395,79.2331,0,U,55499,999,19004,.42843576E-4,.917E-5,0
STARLINK-5141,2023-015BD,2026-07-10T19:36:16.054272,15.27575654,.0001953,43.0047,4.5673,266.7476,93.3152,0,U,55500,999,18942,-.81191E-5,-.486E-5,0
STARLINK-5367,2023-015BE,2026-07-10T12:05:50.311392,15.27580759,.0001078,43.0017,6.5039,262.9646,97.1083,0,U,55501,999,18937,-.12783E-4,-.614E-5,0
ELEKTRO-L 4,2023-016A,2026-07-10T17:42:13.671936,1.00272305,.0001229,0.1060,129.6305,47.1179,183.2502,0,U,55506,999,1257,0,-.49E-6,0
AMAZONAS NEXUS,2023-017A,2026-07-09T16:12:37.153728,1.00269698,.00046145,0.0345,40.6573,43.4687,25.6403,0,U,55508,999,727,0,-.27E-5,0
STARLINK-5749,2023-020A,2026-07-10T23:14:24.004032,15.27584288,.0001682,43.0002,32.6575,265.2001,94.8659,0,U,55569,999,18879,.22877E-4,.367E-5,0
STARLINK-5737,2023-020B,2026-07-10T22:54:45.579744,15.27580480,.0001628,43.0022,29.1520,263.6412,96.4254,0,U,55570,999,18776,.26353E-4,.463E-5,0
STARLINK-5739,2023-020C,2026-07-10T22:44:49.601184,15.27539262,.0002324,43.0049,32.5081,253.8556,106.2040,0,U,55571,999,18772,.25958E-4,.451E-5,0
STARLINK-5732,2023-020D,2026-07-10T21:06:56.783232,15.27574763,.0001242,43.0049,32.8606,274.8873,85.1837,0,U,55572,999,18771,.46759E-5,-.133E-5,0
STARLINK-5738,2023-020E,2026-07-10T21:01:23.223072,15.27581252,.0001745,43.0059,32.8322,279.4553,80.6101,0,U,55573,999,18771,.368E-4,.75E-5,0
STARLINK-5747,2023-020F,2026-07-09T22:19:00.789600,15.27581753,.00012181,43.0020,38.6252,257.3212,102.7503,0,U,55574,999,18756,.45621127E-4,.994E-5,0
STARLINK-5745,2023-020G,2026-07-11T00:28:12.194112,15.27587989,.0002154,43.0053,32.1869,225.7702,134.2973,0,U,55575,999,18773,-.64519E-4,-.2038E-4,0
STARLINK-5751,2023-020H,2026-07-10T12:09:21.833280,15.27576444,.0001092,43.0016,5.8081,276.3061,83.7666,0,U,55576,999,18799,.79018E-6,-.24E-5,0
STARLINK-5752,2023-020J,2026-07-10T20:03:05.066784,15.27586935,.0001599,43.0024,29.8912,249.6622,110.4058,0,U,55577,999,18774,.19139E-4,.265E-5,0
STARLINK-5754,2023-020L,2026-07-10T22:41:47.024160,15.27578363,.0002154,43.0056,29.0817,259.8883,100.1726,0,U,55579,999,18776,-.78687E-5,-.479E-5,0
STARLINK-5757,2023-020M,2026-07-08T05:28:42.444192,15.27566721,.00016449,43.0042,18.8110,259.7535,100.3131,0,U,55580,999,18764,-.18863592E-4,-.781E-5,0
STARLINK-5753,2023-020N,2026-07-10T22:53:20.495616,15.27576914,.0001129,43.0041,35.9633,278.2611,81.8112,0,U,55581,999,18768,-.58157E-5,-.422E-5,0
STARLINK-5741,2023-020P,2026-07-10T23:16:59.853216,15.27571563,.0001452,43.0050,17.9994,278.8360,81.2327,0,U,55582,999,18789,.51137E-4,.1145E-4,0
STARLINK-5742,2023-020Q,2026-07-10T20:34:20.537760,15.27576812,.0000817,43.0040,29.2787,268.1573,91.9185,0,U,55583,999,18775,.18331E-4,.242E-5,0
STARLINK-5736,2023-020R,2026-07-09T20:52:57.275904,15.27582269,.00013812,43.0016,35.6265,271.3665,88.7029,0,U,55584,999,18759,.8990139E-5,-.15E-6,0
STARLINK-5769,2023-020S,2026-07-09T14:54:50.698368,15.27534297,.00026308,43.0042,25.9403,223.3938,136.6707,0,U,55585,999,18768,.36735191E-3,.9846E-4,0
STARLINK-5767,2023-020T,2026-07-10T23:09:33.780384,15.27588810,.0001417,43.0031,29.2226,267.4741,92.5949,0,U,55586,999,18776,.33579E-4,.662E-5,0
STARLINK-5727,2023-020U,2026-07-10T23:00:17.544096,15.27575758,.0001486,43.0042,29.1012,262.5923,97.4760,0,U,55587,999,18776,.10453E-4,.25E-6,0
STARLINK-5728,2023-020V,2026-07-10T10:30:45.741888,15.27584630,.00017121,43.0027,32.1499,260.7678,99.2980,0,U,55588,999,18768,.49144755E-4,.109E-4,0
STARLINK-5697,2023-020W,2026-07-10T22:47:21.344640,15.27576636,.000169,43.0056,29.1075,273.6892,86.3766,0,U,55589,999,18776,.28662E-5,-.183E-5,0
STARLINK-5762,2023-020X,2026-07-10T21:03:57.724416,15.27586984,.000032,43.0007,29.4354,288.4095,71.6722,0,U,55590,999,18775,.29695E-4,.556E-5,0
STARLINK-5760,2023-020Y,2026-07-10T21:24:18.118368,15.27574626,.0001578,43.0032,29.5383,265.6672,94.4000,0,U,55591,999,18775,.29765E-4,.557E-5,0
STARLINK-5759,2023-020Z,2026-07-10T20:38:02.711040,15.27581854,.0001232,43.0039,29.2973,272.0638,88.0073,0,U,55592,999,18775,.43626E-4,.939E-5,0
STARLINK-5703,2023-020AA,2026-07-10T16:00:01.998720,15.27567067,.0001113,43.0030,30.3393,274.1301,124.2680,0,U,55593,999,587,-.54652E-3,-.15264E-3,0
STARLINK-5750,2023-020AB,2026-07-10T20:43:35.478912,15.27577690,.0001723,43.0051,29.3272,283.3854,76.6806,0,U,55594,999,18775,-.12673E-4,-.611E-5,0
STARLINK-5729,2023-020AD,2026-07-10T20:58:23.765088,15.27577733,.0001689,43.0053,29.4024,268.8459,91.2199,0,U,55596,999,18775,.18424E-4,.245E-5,0
STARLINK-5743,2023-020AE,2026-07-10T22:45:32.978304,15.27582183,.0001187,43.0043,17.8470,348.9644,11.1182,0,U,55597,999,18789,.52949E-4,.1195E-4,0
STARLINK-5756,2023-020AF,2026-07-10T22:01:19.426080,15.27570119,.0002069,43.0046,18.4380,267.9383,92.1232,0,U,55598,999,18788,-.69876E-4,-.2184E-4,0
STARLINK-5761,2023-020AG,2026-07-10T20:32:43.266048,15.27585512,.0001415,43.0027,18.8382,267.6478,92.4211,0,U,55599,999,18787,.59032E-4,.1363E-4,0
STARLINK-5755,2023-020AH,2026-07-10T19:57:33.912000,15.27579997,.0001817,43.0056,18.6722,255.7103,104.3547,0,U,55600,999,18787,-.70506E-5,-.456E-5,0
STARLINK-5744,2023-020AJ,2026-07-10T20:27:09.533088,15.27587353,.0001165,43.0050,30.0901,273.9803,86.0915,0,U,55601,999,18774,.26592E-4,.47E-5,0
STARLINK-5764,2023-020AK,2026-07-10T22:12:26.238816,15.27584353,.0001504,43.0037,18.4972,274.4402,85.6278,0,U,55602,999,18788,.66938E-4,.158E-4,0
STARLINK-5735,2023-020AL,2026-07-10T12:01:14.005056,15.27577908,.0001018,43.0037,20.4967,256.5643,103.5095,0,U,55603,999,18782,-.13277E-3,-.3913E-4,0
STARLINK-5748,2023-020AM,2026-07-10T12:07:30.671040,15.27575634,.0001255,43.0028,5.8068,267.2585,92.8123,0,U,55604,999,18799,-.12342E-4,-.602E-5,0
STARLINK-5725,2023-020AN,2026-07-10T12:12:20.544768,15.27574977,.0001191,43.0052,20.5503,275.9513,84.1203,0,U,55605,999,18782,.92908E-6,-.237E-5,0
STARLINK-5700,2023-020AQ,2026-07-10T20:23:28.540032,15.27575433,.0002138,43.0063,18.8100,274.9448,85.1159,0,U,55607,999,18787,.14824E-4,.145E-5,0
STARLINK-5726,2023-020AR,2026-07-10T20:29:01.743360,15.27578636,.0001698,43.0038,18.8330,270.3107,89.7550,0,U,55608,999,18787,.16689E-4,.197E-5,0
STARLINK-5719,2023-020AS,2026-07-09T22:19:43.523904,15.27589151,.00015323,43.0074,23.9529,275.0564,85.0113,0,U,55609,999,18773,.80860993E-4,.1964E-4,0
